{
  "links" : {
    "next" : "https://api.nasa.gov/neo/rest/v1/feed?start_date=1998-09-09&end_date=1998-09-09&detailed=true&api_key=t0TVs3DtDT2H8Oy2Zy8m2eVrNsAVKAexjcZXUckd",
    "prev" : "https://api.nasa.gov/neo/rest/v1/feed?start_date=1998-09-07&end_date=1998-09-07&detailed=true&api_key=t0TVs3DtDT2H8Oy2Zy8m2eVrNsAVKAexjcZXUckd",
    "self" : "https://api.nasa.gov/neo/rest/v1/feed?start_date=1998-09-08&end_date=1998-09-08&detailed=true&api_key=t0TVs3DtDT2H8Oy2Zy8m2eVrNsAVKAexjcZXUckd"
  },
  "element_count" : 7,
  "near_earth_objects" : {
    "1998-09-08" : [ {
      "links" : {
        "self" : "https://api.nasa.gov/neo/rest/v1/neo/2482796?api_key=t0TVs3DtDT2H8Oy2Zy8m2eVrNsAVKAexjcZXUckd"
      },
      "neo_reference_id" : "2482796",
      "name" : "482796 (2013 QJ10)",
      "nasa_jpl_url" : "http://ssd.jpl.nasa.gov/sbdb.cgi?sstr=2482796",
      "absolute_magnitude_h" : 19.5,
      "estimated_diameter" : {
        "kilometers" : {
          "estimated_diameter_min" : 0.3346223745,
          "estimated_diameter_max" : 0.7482383761
        },
        "meters" : {
          "estimated_diameter_min" : 334.6223744549,
          "estimated_diameter_max" : 748.2383760735
        },
        "miles" : {
          "estimated_diameter_min" : 0.2079246394,
          "estimated_diameter_max" : 0.464933628
        },
        "feet" : {
          "estimated_diameter_min" : 1097.8424710066,
          "estimated_diameter_max" : 2454.8503937571
        }
      },
      "is_potentially_hazardous_asteroid" : true,
      "close_approach_data" : [ {
        "close_approach_date" : "1998-09-08",
        "epoch_date_close_approach" : 905238000000,
        "relative_velocity" : {
          "kilometers_per_second" : "10.9054232968",
          "kilometers_per_hour" : "39259.5238686236",
          "miles_per_hour" : "24394.3413727012"
        },
        "miss_distance" : {
          "astronomical" : "0.3545847997",
          "lunar" : "137.9334869385",
          "kilometers" : "53045132",
          "miles" : "32960718"
        },
        "orbiting_body" : "Earth"
      } ],
      "orbital_data" : {
        "orbit_id" : "78",
        "orbit_determination_date" : "2017-09-26 06:51:55",
        "orbit_uncertainty" : "1",
        "minimum_orbit_intersection" : ".0242684",
        "jupiter_tisserand_invariant" : "6.161",
        "epoch_osculation" : "2458000.5",
        "eccentricity" : ".4252201464767748",
        "semi_major_axis" : ".9595421959633043",
        "inclination" : "18.14805013584654",
        "ascending_node_longitude" : "327.4840661508824",
        "orbital_period" : "343.3163948115964",
        "perihelion_distance" : ".5515255228451419",
        "perihelion_argument" : "243.7977576134674",
        "aphelion_distance" : "1.367558869081466",
        "perihelion_time" : "2458168.386997859231",
        "mean_anomaly" : "183.9544625811109",
        "mean_motion" : "1.04859542230006",
        "equinox" : "J2000"
      }
    } ]
  }
}